IRIDIUM 150             
1 43257U 18030J   25260.84161272  .00000111  00000+0  32492-4 0  9995
2 43257  86.3960  44.2972 0002381  88.7166 271.4302 14.34218566391128
IRIDIUM 143             
1 43258U 18030K   25260.89235453 -.00000003  00000+0 -80709-5 0  9991
2 43258  86.3964  44.3585 0002389  84.9182 275.2287 14.34217848391067
IRIDIUM 161             
1 43478U 18047C   25260.90680285  .00000346  00000+0  96813-4 0  9992
2 43478  86.4544 202.1959 0002168  87.7502 272.3947 14.43282511385868
IRIDIUM 152             
1 43479U 18047D   25260.93484121  .00000236  00000+0  77140-4 0  9997
2 43479  86.4022 202.0452 0002337  89.2267 270.9197 14.34218078383462
IRIDIUM 147             
1 43480U 18047E   25260.80164517  .00000123  00000+0  36782-4 0  9991
2 43480  86.4018 202.1009 0002170  83.6574 276.4869 14.34218823383445
IRIDIUM 110             
1 43481U 18047F   25260.87775665  .00000037  00000+0  61506-5 0  9998
2 43481  86.4023 202.1539 0001855  93.4329 266.7079 14.34217705383449
IRIDIUM 162             
1 43482U 18047G   25260.90049819  .00000344  00000+0  96221-4 0  9990
2 43482  86.4542 202.0929 0002223  92.3067 267.8389 14.43280504385855
IRIDIUM 160             
1 43569U 18061A   25260.89336172 -.00000021  00000+0 -14394-4 0  9996
2 43569  86.4049 170.5921 0001865  86.5906 273.5503 14.34217468374345
